{"type": "FeatureCollection", "features": [ {"type": "Feature", "properties": {"norad_id": 31883, "name": "FENGYUN 1C DEB", "group": "fengyun-1c-debris", "lat": 77.91057386414286, "lon": -128.50935462298818, "alt_km": 612.4220741087593, "timestamp": "2025-12-27T07:26:25.506253+00:00", "meta": {"OBJECT_NAME": "FENGYUN 1C DEB", "OBJECT_ID": "1999-025CKJ", "EPOCH": "2025-12-25T17:26:58.749504", "MEAN_MOTION": 14.67858141, "ECCENTRICITY": 0.01244488, "INCLINATION": 99.029, "RA_OF_ASC_NODE": 277.6806, "ARG_OF_PERICENTER": 29.4911, "MEAN_ANOMALY": 331.3236, "EPHEMERIS_TYPE": 0, "CLASSIFICATION_TYPE": "U", "NORAD_CAT_ID": 31883, "ELEMENT_SET_NO": 999, "REV_AT_EPOCH": 98169, "BSTAR": 0.0010782573, "MEAN_MOTION_DOT": 6.865e-05, "MEAN_MOTION_DDOT": 0}, "tle": {"line1": "1 31883U 99025CKJ 25359.72706886  .00006865  00000+0  10783-2 0  9991", "line2": "2 31883  99.0290 277.6806 0124448  29.4911 331.3236 14.67858141981698"}}, "geometry": {"type": "Point", "coordinates": [-128.50935462298818, 77.91057386414286]}}, {"type": "Feature", "properties": {"norad_id": 31887, "name": "FENGYUN 1C DEB", "group": "fengyun-1c-debris", "lat": 59.317103678476315, "lon": 38.5655964735243, "alt_km": 697.4921003863683, "timestamp": "2025-12-27T07:26:25.506266+00:00", "meta": {"OBJECT_NAME": "FENGYUN 1C DEB", "OBJECT_ID": "1999-025CKN", "EPOCH": "2025-12-24T21:30:44.983008", "MEAN_MOTION": 14.57863059, "ECCENTRICITY": 0.0023958, "INCLINATION": 99.5327, "RA_OF_ASC_NODE": 52.2551, "ARG_OF_PERICENTER": 326.7507, "MEAN_ANOMALY": 33.2181, "EPHEMERIS_TYPE": 0, "CLASSIFICATION_TYPE": "U", "NORAD_CAT_ID": 31887, "ELEMENT_SET_NO": 999, "REV_AT_EPOCH": 96785, "BSTAR": 0.00075645, "MEAN_MOTION_DOT": 3.42e-05, "MEAN_MOTION_DDOT": 0}, "tle": {"line1": "1 31887U 99025CKN 25358.89635397  .00003420  00000+0  75645-3 0  9993", "line2": "2 31887  99.5327  52.2551 0023958 326.7507  33.2181 14.57863059967852"}}, "geometry": {"type": "Point", "coordinates": [38.5655964735243, 59.317103678476315]}}, {"type": "Feature", "properties": {"norad_id": 31888, "name": "FENGYUN 1C DEB", "group": "fengyun-1c-debris", "lat": -73.32479136753611, "lon": -38.8748987582064, "alt_km": 790.2634513835055, "timestamp": "2025-12-27T07:26:25.506277+00:00", "meta": {"OBJECT_NAME": "FENGYUN 1C DEB", "OBJECT_ID": "1999-025CKP", "EPOCH": "2025-12-26T18:23:57.957792", "MEAN_MOTION": 14.34078212, "ECCENTRICITY": 0.00176663, "INCLINATION": 99.1537, "RA_OF_ASC_NODE": 287.9833, "ARG_OF_PERICENTER": 172.7868, "MEAN_ANOMALY": 187.3572, "EPHEMERIS_TYPE": 0, "CLASSIFICATION_TYPE": "U", "NORAD_CAT_ID": 31888, "ELEMENT_SET_NO": 999, "REV_AT_EPOCH": 95838, "BSTAR": 0.0021238508, "MEAN_MOTION_DOT": 5.905e-05, "MEAN_MOTION_DDOT": 0}, "tle": {"line1": "1 31888U 99025CKP 25360.76664303  .00005905  00000+0  21239-2 0  9991", "line2": "2 31888  99.1537 287.9833 0017666 172.7868 187.3572 14.34078212958387"}}, "geometry": {"type": "Point", "coordinates": [-38.8748987582064, -73.32479136753611]}}, {"type": "Feature", "properties": {"norad_id": 31890, "name": "FENGYUN 1C DEB", "group": "fengyun-1c-debris", "lat": 25.562041601852282, "lon": -163.40820729744473, "alt_km": 822.2259262548723, "timestamp": "2025-12-27T07:26:25.506286+00:00", "meta": {"OBJECT_NAME": "FENGYUN 1C DEB", "OBJECT_ID": "1999-025CKR", "EPOCH": "2025-12-18T06:26:12.801408", "MEAN_MOTION": 14.10135343, "ECCENTRICITY": 0.00717599, "INCLINATION": 98.7186, "RA_OF_ASC_NODE": 3.6189, "ARG_OF_PERICENTER": 226.3843, "MEAN_ANOMALY": 133.1361, "EPHEMERIS_TYPE": 0, "CLASSIFICATION_TYPE": "U", "NORAD_CAT_ID": 31890, "ELEMENT_SET_NO": 999, "REV_AT_EPOCH": 64230, "BSTAR": 0.00011349556, "MEAN_MOTION_DOT": 1.63e-06, "MEAN_MOTION_DDOT": 0}, "tle": {"line1": "1 31890U 99025CKR 25352.26820372  .00000163  00000+0  11350-3 0  9995", "line2": "2 31890  98.7186   3.6189 0071759 226.3843 133.1361 14.10135343642304"}}, "geometry": {"type": "Point", "coordinates": [-163.40820729744473, 25.562041601852282]}}, {"type": "Feature", "properties": {"norad_id": 31891, "name": "FENGYUN 1C DEB", "group": "fengyun-1c-debris", "lat": -72.74447427294592, "lon": 48.212741687536116, "alt_km": 1144.0128808568625, "timestamp": "2025-12-27T07:26:25.506297+00:00", "meta": {"OBJECT_NAME": "FENGYUN 1C DEB", "OBJECT_ID": "1999-025CKS", "EPOCH": "2025-12-22T06:32:52.690848", "MEAN_MOTION": 13.66212929, "ECCENTRICITY": 0.02251424, "INCLINATION": 99.4019, "RA_OF_ASC_NODE": 11.0849, "ARG_OF_PERICENTER": 158.7468, "MEAN_ANOMALY": 202.3212, "EPHEMERIS_TYPE": 0, "CLASSIFICATION_TYPE": "U", "NORAD_CAT_ID": 31891, "ELEMENT_SET_NO": 999, "REV_AT_EPOCH": 92540, "BSTAR": 0.00046222559, "MEAN_MOTION_DOT": 4.12e-06, "MEAN_MOTION_DDOT": 0}, "tle": {"line1": "1 31891U 99025CKS 25356.27283207  .00000412  00000+0  46223-3 0  9995", "line2": "2 31891  99.4019  11.0849 0225142 158.7468 202.3212 13.66212929925407"}}, "geometry": {"type": "Point", "coordinates": [48.212741687536116, -72.74447427294592]}}, {"type": "Feature", "properties": {"norad_id": 31892, "name": "FENGYUN 1C DEB", "group": "fengyun-1c-debris", "lat": -13.36373825770953, "lon": -9.858104067596894, "alt_km": 666.3325660135497, "timestamp": "2025-12-27T07:26:25.506306+00:00", "meta": {"OBJECT_NAME": "FENGYUN 1C DEB", "OBJECT_ID": "1999-025CKT", "EPOCH": "2025-12-22T06:33:48.015360", "MEAN_MOTION": 14.41236891, "ECCENTRICITY": 0.02014657, "INCLINATION": 99.2968, "RA_OF_ASC_NODE": 166.8939, "ARG_OF_PERICENTER": 259.0043, "MEAN_ANOMALY": 98.8424, "EPHEMERIS_TYPE": 0, "CLASSIFICATION_TYPE": "U", "NORAD_CAT_ID": 31892, "ELEMENT_SET_NO": 999, "REV_AT_EPOCH": 65043, "BSTAR": 0.00063446246, "MEAN_MOTION_DOT": 2.547e-05, "MEAN_MOTION_DDOT": 0}, "tle": {"line1": "1 31892U 99025CKT 25356.27347240  .00002547  00000+0  63446-3 0  9991", "line2": "2 31892  99.2968 166.8939 0201465 259.0043  98.8424 14.41236891650433"}}, "geometry": {"type": "Point", "coordinates": [-9.858104067596894, -13.36373825770953]}}, {"type": "Feature", "properties": {"norad_id": 31893, "name": "FENGYUN 1C DEB", "group": "fengyun-1c-debris", "lat": -51.48647110538882, "lon": -27.364949397571934, "alt_km": 576.4471771050048, "timestamp": "2025-12-27T07:26:25.506316+00:00", "meta": {"OBJECT_NAME": "FENGYUN 1C DEB", "OBJECT_ID": "1999-025CKU", "EPOCH": "2025-12-25T03:28:46.257312", "MEAN_MOTION": 14.63822484, "ECCENTRICITY": 0.01743442, "INCLINATION": 99.0725, "RA_OF_ASC_NODE": 318.6694, "ARG_OF_PERICENTER": 288.5772, "MEAN_ANOMALY": 135.5875, "EPHEMERIS_TYPE": 0, "CLASSIFICATION_TYPE": "U", "NORAD_CAT_ID": 31893, "ELEMENT_SET_NO": 999, "REV_AT_EPOCH": 98586, "BSTAR": 0.00040415494, "MEAN_MOTION_DOT": 2.561e-05, "MEAN_MOTION_DDOT": 0}, "tle": {"line1": "1 31893U 99025CKU 25359.14497983  .00002561  00000+0  40415-3 0  9998", "line2": "2 31893  99.0725 318.6694 0174344 288.5772 135.5875 14.63822484985869"}}, "geometry": {"type": "Point", "coordinates": [-27.364949397571934, -51.48647110538882]}}, {"type": "Feature", "properties": {"norad_id": 31895, "name": "FENGYUN 1C DEB", "group": "fengyun-1c-debris", "lat": -57.550544041406006, "lon": -165.03775538047324, "alt_km": 871.3930519506739, "timestamp": "2025-12-27T07:26:25.506326+00:00", "meta": {"OBJECT_NAME": "FENGYUN 1C DEB", "OBJECT_ID": "1999-025CKW", "EPOCH": "2025-12-24T08:27:46.780992", "MEAN_MOTION": 13.75578503, "ECCENTRICITY": 0.02273209, "INCLINATION": 99.0939, "RA_OF_ASC_NODE": 26.7284, "ARG_OF_PERICENTER": 199.0497, "MEAN_ANOMALY": 160.2048, "EPHEMERIS_TYPE": 0, "CLASSIFICATION_TYPE": "U", "NORAD_CAT_ID": 31895, "ELEMENT_SET_NO": 999, "REV_AT_EPOCH": 62056, "BSTAR": 0.0020613035, "MEAN_MOTION_DOT": 2.358e-05, "MEAN_MOTION_DDOT": 0}, "tle": {"line1": "1 31895U 99025CKW 25358.35262478  .00002358  00000+0  20613-2 0  9992", "line2": "2 31895  99.0939  26.7284 0227320 199.0497 160.2048 13.75578503620565"}}, "geometry": {"type": "Point", "coordinates": [-165.03775538047324, -57.550544041406006]}}, {"type": "Feature", "properties": {"norad_id": 31898, "name": "FENGYUN 1C DEB", "group": "fengyun-1c-debris", "lat": -81.14481144409027, "lon": -53.352995990292634, "alt_km": 684.8956076752547, "timestamp": "2025-12-27T07:26:25.506338+00:00", "meta": {"OBJECT_NAME": "FENGYUN 1C DEB", "OBJECT_ID": "1999-025CKZ", "EPOCH": "2025-12-20T09:03:23.166144", "MEAN_MOTION": 14.68533537, "ECCENTRICITY": 0.01439518, "INCLINATION": 98.707, "RA_OF_ASC_NODE": 219.6404, "ARG_OF_PERICENTER": 195.5546, "MEAN_ANOMALY": 164.1211, "EPHEMERIS_TYPE": 0, "CLASSIFICATION_TYPE": "U", "NORAD_CAT_ID": 31898, "ELEMENT_SET_NO": 999, "REV_AT_EPOCH": 65824, "BSTAR": 0.00069711283, "MEAN_MOTION_DOT": 4.672e-05, "MEAN_MOTION_DDOT": 0}, "tle": {"line1": "1 31898U 99025CKZ 25354.37735146  .00004672  00000+0  69711-3 0  9994", "line2": "2 31898  98.7070 219.6404 0143951 195.5546 164.1211 14.68533537658242"}}, "geometry": {"type": "Point", "coordinates": [-53.352995990292634, -81.14481144409027]}}, {"type": "Feature", "properties": {"norad_id": 31899, "name": "FENGYUN 1C DEB", "group": "fengyun-1c-debris", "lat": -16.854029989994796, "lon": -115.39816941668913, "alt_km": 917.5495644686944, "timestamp": "2025-12-27T07:26:25.506620+00:00", "meta": {"OBJECT_NAME": "FENGYUN 1C DEB", "OBJECT_ID": "1999-025CLA", "EPOCH": "2025-12-26T21:49:52.280832", "MEAN_MOTION": 13.83558675, "ECCENTRICITY": 0.01816139, "INCLINATION": 102.0823, "RA_OF_ASC_NODE": 67.8093, "ARG_OF_PERICENTER": 123.8555, "MEAN_ANOMALY": 238.0019, "EPHEMERIS_TYPE": 0, "CLASSIFICATION_TYPE": "U", "NORAD_CAT_ID": 31899, "ELEMENT_SET_NO": 999, "REV_AT_EPOCH": 67760, "BSTAR": 0.0013080864, "MEAN_MOTION_DOT": 1.574e-05, "MEAN_MOTION_DDOT": 0}, "tle": {"line1": "1 31899U 99025CLA 25360.90963288  .00001574  00000+0  13081-2 0  9997", "line2": "2 31899 102.0823  67.8093 0181613 123.8555 238.0019 13.83558675677600"}}, "geometry": {"type": "Point", "coordinates": [-115.39816941668913, -16.854029989994796]}}]}